ONEWEB-0627             
1 55168U 23004AE  25277.84057667 -.00000211  00000+0 -57675-3 0  9998
2 55168  87.9076  56.6656 0002095  83.7366 276.4005 13.17648798133956
ONEWEB-0628             
1 55169U 23004AF  25278.08578030 -.00000102  00000+0 -31948-3 0  9992
2 55169  87.8942  41.3241 0002077  79.5114 280.6249 13.12441914134575
ONEWEB-0629             
1 55170U 23004AG  25277.81610348  .00000004  00000+0 -23110-4 0  9996
2 55170  87.9080  56.6662 0001504  86.9626 273.1678 13.17650106133955
ONEWEB-0631             
1 55171U 23004AH  25278.00434985 -.00000025  00000+0 -95276-4 0  9996
2 55171  87.9224  26.1041 0002370 103.9343 256.2053 13.18686412136049
ONEWEB-0709             
1 55172U 23004AJ  25277.68645281 -.00000486  00000+0 -14084-2 0  9990
2 55172  87.8795  71.9794 0002221 116.3505 243.7851 13.11415567132382
ONEWEB-0710             
1 55173U 23004AK  25277.83045292  .00000137  00000+0  31864-3 0  9991
2 55173  87.9077  56.6581 0001824  91.3869 268.7471 13.17649164133951
ONEWEB-0711             
1 55174U 23004AL  25277.73393851  .00000519  00000+0  14274-2 0  9997
2 55174  87.8810  71.9387 0002205  76.0376 284.0997 13.11414528132352
ONEWEB-0713             
1 55175U 23004AM  25277.82887140 -.00000229  00000+0 -68184-3 0  9997
2 55175  87.8793  71.9250 0001891  87.3985 272.7359 13.11412902132353
ONEWEB-0715             
1 55176U 23004AN  25277.82379244 -.00000027  00000+0 -11250-3 0  9997
2 55176  87.8793  71.9262 0002341 104.4988 255.6399 13.11413044132398
ONEWEB-0716             
1 55177U 23004AP  25277.82369471  .00000009  00000+0 -10217-4 0  9991
2 55177  87.9076  56.6592 0001461  99.4573 260.6724 13.17650622133957
ONEWEB-0717             
1 55178U 23004AQ  25277.80680558 -.00000052  00000+0 -16625-3 0  9999
2 55178  87.9093  56.6277 0002384  85.2142 274.9262 13.17649755134004
ONEWEB-0719             
1 55179U 23004AR  25277.81695014  .00000020  00000+0  17812-4 0  9997
2 55179  87.9086  56.6079 0001520  93.1391 266.9915 13.17648484133959
ONEWEB-0530             
1 55796U 23029A   25278.16884447  .00000062  00000+0  12111-3 0  9990
2 55796  87.9239 325.3400 0002072  82.5228 277.6141 13.20773576127488
ONEWEB-0534             
1 55797U 23029B   25278.15621803  .00000142  00000+0  31851-3 0  9996
2 55797  87.9234 325.3452 0001792  97.5029 262.6308 13.20772805127487
ONEWEB-0556             
1 55798U 23029C   25278.16254207  .00000114  00000+0  24734-3 0  9999
2 55798  87.9241 325.3408 0001348  76.3719 283.7564 13.20773401127486
ONEWEB-0562             
1 55799U 23029D   25278.14992626  .00000072  00000+0  14545-3 0  9994
2 55799  87.9231 325.3286 0001957  69.3423 290.7920 13.20771222127483
ONEWEB-0563             
1 55800U 23029E   25278.14359346  .00000125  00000+0  27542-3 0  9993
2 55800  87.9242 325.3534 0001590  99.7377 260.3936 13.20772873127474
