[{"OBJECT_NAME":"ONEWEB-0627","OBJECT_ID":"2023-004AE","EPOCH":"2025-10-04T20:10:25.824288","MEAN_MOTION":13.17648798,"ECCENTRICITY":0.0002095,"INCLINATION":87.9076,"RA_OF_ASC_NODE":56.6656,"ARG_OF_PERICENTER":83.7366,"MEAN_ANOMALY":276.4005,"EPHEMERIS_TYPE":0,"CLASSIFICATION_TYPE":"U","NORAD_CAT_ID":55168,"ELEMENT_SET_NO":999,"REV_AT_EPOCH":13395,"BSTAR":-0.00057675,"MEAN_MOTION_DOT":-2.11e-6,"MEAN_MOTION_DDOT":0},{"OBJECT_NAME":"ONEWEB-0628","OBJECT_ID":"2023-004AF","EPOCH":"2025-10-05T02:03:31.417920","MEAN_MOTION":13.12441914,"ECCENTRICITY":0.0002077,"INCLINATION":87.8942,"RA_OF_ASC_NODE":41.3241,"ARG_OF_PERICENTER":79.5114,"MEAN_ANOMALY":280.6249,"EPHEMERIS_TYPE":0,"CLASSIFICATION_TYPE":"U","NORAD_CAT_ID":55169,"ELEMENT_SET_NO":999,"REV_AT_EPOCH":13457,"BSTAR":-0.00031948,"MEAN_MOTION_DOT":-1.02e-6,"MEAN_MOTION_DDOT":0},{"OBJECT_NAME":"ONEWEB-0629","OBJECT_ID":"2023-004AG","EPOCH":"2025-10-04T19:35:11.340672","MEAN_MOTION":13.17650106,"ECCENTRICITY":0.0001504,"INCLINATION":87.908,"RA_OF_ASC_NODE":56.6662,"ARG_OF_PERICENTER":86.9626,"MEAN_ANOMALY":273.1678,"EPHEMERIS_TYPE":0,"CLASSIFICATION_TYPE":"U","NORAD_CAT_ID":55170,"ELEMENT_SET_NO":999,"REV_AT_EPOCH":13395,"BSTAR":-2.311e-5,"MEAN_MOTION_DOT":4.0e-8,"MEAN_MOTION_DDOT":0},{"OBJECT_NAME":"ONEWEB-0631","OBJECT_ID":"2023-004AH","EPOCH":"2025-10-05T00:06:15.827040","MEAN_MOTION":13.18686412,"ECCENTRICITY":0.000237,"INCLINATION":87.9224,"RA_OF_ASC_NODE":26.1041,"ARG_OF_PERICENTER":103.9343,"MEAN_ANOMALY":256.2053,"EPHEMERIS_TYPE":0,"CLASSIFICATION_TYPE":"U","NORAD_CAT_ID":55171,"ELEMENT_SET_NO":999,"REV_AT_EPOCH":13604,"BSTAR":-9.5276e-5,"MEAN_MOTION_DOT":-2.5e-7,"MEAN_MOTION_DDOT":0},{"OBJECT_NAME":"ONEWEB-0709","OBJECT_ID":"2023-004AJ","EPOCH":"2025-10-04T16:28:29.522784","MEAN_MOTION":13.11415567,"ECCENTRICITY":0.0002221,"INCLINATION":87.8795,"RA_OF_ASC_NODE":71.9794,"ARG_OF_PERICENTER":116.3505,"MEAN_ANOMALY":243.7851,"EPHEMERIS_TYPE":0,"CLASSIFICATION_TYPE":"U","NORAD_CAT_ID":55172,"ELEMENT_SET_NO":999,"REV_AT_EPOCH":13238,"BSTAR":-0.0014084,"MEAN_MOTION_DOT":-4.86e-6,"MEAN_MOTION_DDOT":0},{"OBJECT_NAME":"ONEWEB-0710","OBJECT_ID":"2023-004AK","EPOCH":"2025-10-04T19:55:51.132288","MEAN_MOTION":13.17649164,"ECCENTRICITY":0.0001824,"INCLINATION":87.9077,"RA_OF_ASC_NODE":56.6581,"ARG_OF_PERICENTER":91.3869,"MEAN_ANOMALY":268.7471,"EPHEMERIS_TYPE":0,"CLASSIFICATION_TYPE":"U","NORAD_CAT_ID":55173,"ELEMENT_SET_NO":999,"REV_AT_EPOCH":13395,"BSTAR":0.00031864,"MEAN_MOTION_DOT":1.37e-6,"MEAN_MOTION_DDOT":0},{"OBJECT_NAME":"ONEWEB-0711","OBJECT_ID":"2023-004AL","EPOCH":"2025-10-04T17:36:52.287264","MEAN_MOTION":13.11414528,"ECCENTRICITY":0.0002205,"INCLINATION":87.881,"RA_OF_ASC_NODE":71.9387,"ARG_OF_PERICENTER":76.0376,"MEAN_ANOMALY":284.0997,"EPHEMERIS_TYPE":0,"CLASSIFICATION_TYPE":"U","NORAD_CAT_ID":55174,"ELEMENT_SET_NO":999,"REV_AT_EPOCH":13235,"BSTAR":0.0014274,"MEAN_MOTION_DOT":5.19e-6,"MEAN_MOTION_DDOT":0},{"OBJECT_NAME":"ONEWEB-0713","OBJECT_ID":"2023-004AM","EPOCH":"2025-10-04T19:53:34.488960","MEAN_MOTION":13.11412902,"ECCENTRICITY":0.0001891,"INCLINATION":87.8793,"RA_OF_ASC_NODE":71.925,"ARG_OF_PERICENTER":87.3985,"MEAN_ANOMALY":272.7359,"EPHEMERIS_TYPE":0,"CLASSIFICATION_TYPE":"U","NORAD_CAT_ID":55175,"ELEMENT_SET_NO":999,"REV_AT_EPOCH":13235,"BSTAR":-0.00068184,"MEAN_MOTION_DOT":-2.29e-6,"MEAN_MOTION_DDOT":0},{"OBJECT_NAME":"ONEWEB-0715","OBJECT_ID":"2023-004AN","EPOCH":"2025-10-04T19:46:15.666816","MEAN_MOTION":13.11413044,"ECCENTRICITY":0.0002341,"INCLINATION":87.8793,"RA_OF_ASC_NODE":71.9262,"ARG_OF_PERICENTER":104.4988,"MEAN_ANOMALY":255.6399,"EPHEMERIS_TYPE":0,"CLASSIFICATION_TYPE":"U","NORAD_CAT_ID":55176,"ELEMENT_SET_NO":999,"REV_AT_EPOCH":13239,"BSTAR":-0.0001125,"MEAN_MOTION_DOT":-2.7e-7,"MEAN_MOTION_DDOT":0},{"OBJECT_NAME":"ONEWEB-0716","OBJECT_ID":"2023-004AP","EPOCH":"2025-10-04T19:46:07.222944","MEAN_MOTION":13.17650622,"ECCENTRICITY":0.0001461,"INCLINATION":87.9076,"RA_OF_ASC_NODE":56.6592,"ARG_OF_PERICENTER":99.4573,"MEAN_ANOMALY":260.6724,"EPHEMERIS_TYPE":0,"CLASSIFICATION_TYPE":"U","NORAD_CAT_ID":55177,"ELEMENT_SET_NO":999,"REV_AT_EPOCH":13395,"BSTAR":-1.0217e-5,"MEAN_MOTION_DOT":9.0e-8,"MEAN_MOTION_DDOT":0},{"OBJECT_NAME":"ONEWEB-0717","OBJECT_ID":"2023-004AQ","EPOCH":"2025-10-04T19:21:48.002112","MEAN_MOTION":13.17649755,"ECCENTRICITY":0.0002384,"INCLINATION":87.9093,"RA_OF_ASC_NODE":56.6277,"ARG_OF_PERICENTER":85.2142,"MEAN_ANOMALY":274.9262,"EPHEMERIS_TYPE":0,"CLASSIFICATION_TYPE":"U","NORAD_CAT_ID":55178,"ELEMENT_SET_NO":999,"REV_AT_EPOCH":13400,"BSTAR":-0.00016625,"MEAN_MOTION_DOT":-5.2e-7,"MEAN_MOTION_DDOT":0},{"OBJECT_NAME":"ONEWEB-0719","OBJECT_ID":"2023-004AR","EPOCH":"2025-10-04T19:36:24.492096","MEAN_MOTION":13.17648484,"ECCENTRICITY":0.000152,"INCLINATION":87.9086,"RA_OF_ASC_NODE":56.6079,"ARG_OF_PERICENTER":93.1391,"MEAN_ANOMALY":266.9915,"EPHEMERIS_TYPE":0,"CLASSIFICATION_TYPE":"U","NORAD_CAT_ID":55179,"ELEMENT_SET_NO":999,"REV_AT_EPOCH":13395,"BSTAR":1.7812e-5,"MEAN_MOTION_DOT":2.0e-7,"MEAN_MOTION_DDOT":0},{"OBJECT_NAME":"ONEWEB-0530","OBJECT_ID":"2023-029A","EPOCH":"2025-10-05T04:03:08.162208","MEAN_MOTION":13.20773576,"ECCENTRICITY":0.0002072,"INCLINATION":87.9239,"RA_OF_ASC_NODE":325.34,"ARG_OF_PERICENTER":82.5228,"MEAN_ANOMALY":277.6141,"EPHEMERIS_TYPE":0,"CLASSIFICATION_TYPE":"U","NORAD_CAT_ID":55796,"ELEMENT_SET_NO":999,"REV_AT_EPOCH":12748,"BSTAR":0.00012111,"MEAN_MOTION_DOT":6.2e-7,"MEAN_MOTION_DDOT":0},{"OBJECT_NAME":"ONEWEB-0534","OBJECT_ID":"2023-029B","EPOCH":"2025-10-05T03:44:57.237792","MEAN_MOTION":13.20772805,"ECCENTRICITY":0.0001792,"INCLINATION":87.9234,"RA_OF_ASC_NODE":325.3452,"ARG_OF_PERICENTER":97.5029,"MEAN_ANOMALY":262.6308,"EPHEMERIS_TYPE":0,"CLASSIFICATION_TYPE":"U","NORAD_CAT_ID":55797,"ELEMENT_SET_NO":999,"REV_AT_EPOCH":12748,"BSTAR":0.00031851,"MEAN_MOTION_DOT":1.42e-6,"MEAN_MOTION_DDOT":0},{"OBJECT_NAME":"ONEWEB-0556","OBJECT_ID":"2023-029C","EPOCH":"2025-10-05T03:54:03.634848","MEAN_MOTION":13.20773401,"ECCENTRICITY":0.0001348,"INCLINATION":87.9241,"RA_OF_ASC_NODE":325.3408,"ARG_OF_PERICENTER":76.3719,"MEAN_ANOMALY":283.7564,"EPHEMERIS_TYPE":0,"CLASSIFICATION_TYPE":"U","NORAD_CAT_ID":55798,"ELEMENT_SET_NO":999,"REV_AT_EPOCH":12748,"BSTAR":0.00024734,"MEAN_MOTION_DOT":1.14e-6,"MEAN_MOTION_DDOT":0},{"OBJECT_NAME":"ONEWEB-0562","OBJECT_ID":"2023-029D","EPOCH":"2025-10-05T03:35:53.628864","MEAN_MOTION":13.20771222,"ECCENTRICITY":0.0001957,"INCLINATION":87.9231,"RA_OF_ASC_NODE":325.3286,"ARG_OF_PERICENTER":69.3423,"MEAN_ANOMALY":290.792,"EPHEMERIS_TYPE":0,"CLASSIFICATION_TYPE":"U","NORAD_CAT_ID":55799,"ELEMENT_SET_NO":999,"REV_AT_EPOCH":12748,"BSTAR":0.00014545,"MEAN_MOTION_DOT":7.2e-7,"MEAN_MOTION_DDOT":0},{"OBJECT_NAME":"ONEWEB-0563","OBJECT_ID":"2023-029E","EPOCH":"2025-10-05T03:26:46.474944","MEAN_MOTION":13.20772873,"ECCENTRICITY":0.000159,"INCLINATION":87.9242,"RA_OF_ASC_NODE":325.3534,"ARG_OF_PERICENTER":99.7377,"MEAN_ANOMALY":260.3936,"EPHEMERIS_TYPE":0,"CLASSIFICATION_TYPE":"U","NORAD_CAT_ID":55800,"ELEMENT_SET_NO":999,"REV_AT_EPOCH":12747,"BSTAR":0.00027542,"MEAN_MOTION_DOT":1.25e-6,"MEAN_MOTION_DDOT":0}]
